KUIPER-00136            
1 65962U 25228R   25308.82795109  .00014944  00000+0  44443-3 0  9999
2 65962  51.8804 203.2066 0005787 210.3380 149.7271 15.34935739  4597
KUIPER-00137            
1 65963U 25228S   25308.83318419  .00017012  00000+0  50993-3 0  9992
2 65963  51.8808 203.2418 0004937 222.6634 137.3969 15.34586126  4596
KUIPER-00138            
1 65964U 25228T   25308.83572524  .00045757  00000+0  13583-2 0  9992
2 65964  51.8797 203.2523 0006229 234.1010 125.9397 15.34329009  4596
KUIPER-00140            
1 65965U 25228U   25308.83646253  .00020897  00000+0  62689-3 0  9994
2 65965  51.8806 203.2604 0005562 235.3832 124.6630 15.34411752  4595
KUIPER-00141            
1 65966U 25228V   25308.83051542  .00024603  00000+0  72629-3 0  9990
2 65966  51.8799 203.2174 0005639 215.4306 144.6306 15.34819403  4596
KUIPER-00146            
1 65967U 25228W   25308.83099918  .00016740  00000+0  49890-3 0  9997
2 65967  51.8809 203.2281 0005609 216.4136 143.6469 15.34778461  4594
KUIPER-00149            
1 65968U 25228X   25308.82839603  .00024647  00000+0  72417-3 0  9996
2 65968  51.8799 203.2051 0005520 213.2470 146.8169 15.34967223  4594
KUIPER-00154            
1 65969U 25228Y   25308.82742044  .00015699  00000+0  46499-3 0  9997
2 65969  51.8799 203.1990 0005706 210.3830 149.6826 15.35023586  4597
